STARLINK-31021          
1 58518U 23191L   26068.44888954  .00000649  00000+0  33885-4 0  9994
2 58518  43.0000 104.8427 0001407 267.8000  92.2690 15.26741054125435
FLOCK 4G-10             
1 62670U 25009BP  26068.70827885  .00013952  00000+0  52624-3 0  9995
2 62670  97.3967 150.5883 0003469 341.4844  18.6269 15.27155944121340
